NORAD_CAT_ID,OBJECT_NAME,OBJECT_TYPE,EPOCH,MEAN_MOTION,ECCENTRICITY,INCLINATION,RA_OF_ASC_NODE,ARG_OF_PERICENTER,MEAN_ANOMALY,BSTAR,MEAN_MOTION_DOT,MEAN_MOTION_DDOT,TLE_LINE0,TLE_LINE1,TLE_LINE2,SEMIMAJOR_AXIS,PERIOD,APOGEE,PERIGEE,DECAYED
49431.0,STARLINK-3153,PAYLOAD,2023-08-14 02:20:24,15.08837399,0.0001383,53.2174,122.8832,80.2531,279.8617,6.4552e-05,7.4e-06,0.0,0 STARLINK-3153,1 49431U 21104Z   23226.09750731  .00000740  00000-0  64552-4 0  9993,2 49431  53.2174 122.8832 0001383  80.2531 279.8617 15.08837399 98016,6917.888,95.438,540.71,538.797,0.0
49431.0,STARLINK-3153,PAYLOAD,2023-08-15 02:11:10,15.08855858,0.0001473,53.2175,118.4221,94.9276,265.1884,-9.4277e-05,-1.789e-05,0.0,0 STARLINK-3153,1 49431U 21104Z   23227.09109876 -.00001789  00000-0 -94277-4 0  9995,2 49431  53.2175 118.4221 0001473  94.9276 265.1884 15.08855858 98168,6917.832,95.437,540.716,538.678,0.0
49431.0,STARLINK-3153,PAYLOAD,2023-08-16 02:01:58,15.08845049,0.0001401,53.2178,113.9619,86.025,274.0902,6.5511e-05,7.55e-06,0.0,0 STARLINK-3153,1 49431U 21104Z   23228.08470119  .00000755  00000-0  65511-4 0  9995,2 49431  53.2178 113.9619 0001401  86.0250 274.0902 15.08845049 98315,6917.865,95.437,540.699,538.761,0.0
49431.0,STARLINK-3153,PAYLOAD,2023-08-18 00:08:09,15.0884039,0.0001575,53.2183,105.3363,96.4772,263.6399,5.4725e-05,5.83e-06,0.0,0 STARLINK-3153,1 49431U 21104Z   23230.00566050  .00000583  00000-0  54725-4 0  9994,2 49431  53.2183 105.3363 0001575  96.4772 263.6399 15.08840390 98608,6917.879,95.438,540.834,538.655,0.0
49431.0,STARLINK-3153,PAYLOAD,2023-08-19 01:34:20,15.08835232,0.0001424,53.2169,100.5801,88.6373,271.4783,-2.1788e-05,-6.35e-06,0.0,0 STARLINK-3153,1 49431U 21104Z   23231.06550985 -.00000635  00000-0 -21788-4 0  9994,2 49431  53.2169 100.5801 0001424  88.6373 271.4783 15.08835232 98769,6917.895,95.438,540.745,538.775,0.0
49431.0,STARLINK-3153,PAYLOAD,2023-08-20 18:54:21,15.08839736,0.0001357,53.2169,92.8494,87.9927,272.122,0.00013004,1.782e-05,0.0,0 STARLINK-3153,1 49431U 21104Z   23232.78775115  .00001782  00000-0  13004-3 0  9991,2 49431  53.2169  92.8494 0001357  87.9927 272.1220 15.08839736 99029,6917.881,95.438,540.685,538.807,0.0
49431.0,STARLINK-3153,PAYLOAD,2023-08-21 20:20:32,15.0883765,0.0001295,53.2187,88.0907,92.9168,267.1972,7.4452e-05,8.97e-06,0.0,0 STARLINK-3153,1 49431U 21104Z   23233.84759611  .00000897  00000-0  74452-4 0  9993,2 49431  53.2187  88.0907 0001295  92.9168 267.1972 15.08837650 99187,6917.888,95.438,540.648,538.857,0.0
49431.0,STARLINK-3153,PAYLOAD,2023-08-21 23:31:18,15.08843628,0.0001334,53.2176,87.4969,89.7566,270.3579,0.00011365,1.521e-05,0.0,0 STARLINK-3153,1 49431U 21104Z   23233.98007244  .00001521  00000-0  11365-3 0  9994,2 49431  53.2176  87.4969 0001334  89.7566 270.3579 15.08843628 99200,6917.869,95.437,540.657,538.811,0.0
49431.0,STARLINK-3153,PAYLOAD,2023-08-24 13:31:20,15.08841426,0.0001352,53.2173,75.8993,84.3748,275.7398,5.6616e-05,6.13e-06,0.0,0 STARLINK-3153,1 49431U 21104Z   23236.56343507  .00000613  00000-0  56616-4 0  9996,2 49431  53.2173  75.8993 0001352  84.3748 275.7398 15.08841426 98513,6917.876,95.437,540.676,538.806,0.0
49431.0,STARLINK-3153,PAYLOAD,2023-08-25 18:08:17,15.08840937,0.0001212,53.2169,70.5458,85.2783,274.8348,5.0067e-05,5.09e-06,0.0,0 STARLINK-3153,1 49431U 21104Z   23237.75575493  .00000509  00000-0  50067-4 0  9997,2 49431  53.2169  70.5458 0001212  85.2783 274.8348 15.08840937 99770,6917.878,95.437,540.581,538.904,0.0
49431.0,STARLINK-3153,PAYLOAD,2023-08-25 19:43:40,15.08841025,0.0001222,53.2171,70.2483,86.3262,273.787,4.9713e-05,5.03e-06,0.0,0 STARLINK-3153,1 49431U 21104Z   23237.82199478  .00000503  00000-0  49713-4 0  9990,2 49431  53.2171  70.2483 0001222  86.3262 273.7870 15.08841025 98702,6917.877,95.437,540.588,538.897,0.0
49431.0,STARLINK-3153,PAYLOAD,2023-08-26 11:37:32,15.08834615,0.0001272,53.2168,67.2764,85.9336,274.1802,1.2526e-05,-8.9e-07,0.0,0 STARLINK-3153,1 49431U 21104Z   23238.48440035 -.00000089  00000-0  12526-4 0  9993,2 49431  53.2168  67.2764 0001272  85.9336 274.1802 15.08834615 98806,6917.897,95.438,540.642,538.882,0.0
49431.0,STARLINK-3153,PAYLOAD,2023-08-26 19:34:27,15.08840024,0.0001314,53.2179,65.7893,97.1363,262.9778,5.6929e-05,6.18e-06,0.0,0 STARLINK-3153,1 49431U 21104Z   23238.81559586  .00000618  00000-0  56929-4 0  9994,2 49431  53.2179  65.7893 0001314  97.1363 262.9778 15.08840024 98859,6917.88,95.438,540.654,538.836,0.0
49431.0,STARLINK-3153,PAYLOAD,2023-08-27 17:49:51,15.08835484,0.0001371,53.2184,61.6264,96.7976,263.3172,4.2455e-05,3.88e-06,0.0,0 STARLINK-3153,1 49431U 21104Z   23239.74296060  .00000388  00000-0  42455-4 0  9995,2 49431  53.2184  61.6264 0001371  96.7976 263.3172 15.08835484100075,6917.894,95.438,540.708,538.811,0.0
49431.0,STARLINK-3153,PAYLOAD,2023-08-28 04:57:32,15.08856115,0.000102,53.217,59.5441,90.8725,269.2384,0.00015674,2.209e-05,0.0,0 STARLINK-3153,1 49431U 21104Z   23240.20662097  .00002209  00000-0  15674-3 0  9991,2 49431  53.2170  59.5441 0001020  90.8725 269.2384 15.08856115100143,6917.831,95.437,540.402,538.991,0.0
49431.0,STARLINK-3153,PAYLOAD,2023-08-28 20:51:24,15.08837447,0.0001297,53.2187,56.5709,93.2416,266.8725,-5.3906e-06,-3.74e-06,0.0,0 STARLINK-3153,1 49431U 21104Z   23240.86903432 -.00000374  00000-0 -53906-5 0  9999,2 49431  53.2187  56.5709 0001297  93.2416 266.8725 15.08837447 99163,6917.888,95.438,540.65,538.856,0.0
49431.0,STARLINK-3153,PAYLOAD,2023-08-28 22:26:47,15.08837728,0.0001285,53.2187,56.2735,93.732,266.3819,-4.2717e-06,-3.56e-06,0.0,0 STARLINK-3153,1 49431U 21104Z   23240.93527401 -.00000356  00000-0 -42717-5 0  9993,2 49431  53.2187  56.2735 0001285  93.7320 266.3819 15.08837728100259,6917.887,95.438,540.641,538.863,0.0
49431.0,STARLINK-3153,PAYLOAD,2023-08-29 04:48:20,15.0882901,0.0001528,53.2188,55.0838,86.4862,273.6305,-5.1081e-05,-1.101e-05,0.0,0 STARLINK-3153,1 49431U 21104Z   23241.20024262 -.00001101  00000-0 -51081-4 0  9993,2 49431  53.2188  55.0838 0001528  86.4862 273.6305 15.08829010100291,6917.914,95.438,540.836,538.722,0.0
49431.0,STARLINK-3153,PAYLOAD,2023-08-29 19:06:49,15.08826861,0.0001354,53.2184,52.4081,83.451,276.6637,-4.9968e-05,-1.083e-05,0.0,0 STARLINK-3153,1 49431U 21104Z   23241.79640719 -.00001083  00000-0 -49968-4 0  9998,2 49431  53.2184  52.4081 0001354  83.4510 276.6637 15.08826861 99303,6917.921,95.438,540.722,538.849,0.0
49431.0,STARLINK-3153,PAYLOAD,2023-08-30 11:00:40,15.08841245,0.0001143,53.2184,49.4325,82.2579,277.8543,-8.9151e-05,-1.706e-05,0.0,0 STARLINK-3153,1 49431U 21104Z   23242.45879891 -.00001706  00000-0 -89151-4 0  9997,2 49431  53.2184  49.4325 0001143  82.2579 277.8543 15.08841245100482,6917.877,95.437,540.532,538.951,0.0
49431.0,STARLINK-3153,PAYLOAD,2023-08-30 17:22:12,15.08846652,9.27e-05,53.2183,48.2439,79.2611,280.8486,-2.4415e-05,-6.76e-06,0.0,0 STARLINK-3153,1 49431U 21104Z   23242.72375203 -.00000676  00000-0 -24415-4 0  9992,2 49431  53.2183  48.2439 0000927  79.2611 280.8486 15.08846652 99446,6917.86,95.437,540.366,539.084,0.0
49431.0,STARLINK-3153,PAYLOAD,2023-08-31 10:51:27,15.08830219,0.0001336,53.2182,44.9735,86.7151,273.3994,9.8519e-05,1.28e-05,0.0,0 STARLINK-3153,1 49431U 21104Z   23243.45240095  .00001280  00000-0  98519-4 0  9999,2 49431  53.2182  44.9735 0001336  86.7151 273.3994 15.08830219 99559,6917.91,95.438,540.7,538.851,0.0
49431.0,STARLINK-3153,PAYLOAD,2023-09-01 10:42:14,15.08838924,0.00016,53.2176,40.5159,72.5689,287.5478,-9.1497e-06,-4.34e-06,0.0,0 STARLINK-3153,1 49431U 21104Z   23244.44600376 -.00000434  00000-0 -91497-5 0  9992,2 49431  53.2176  40.5159 0001600  72.5689 287.5478 15.08838924100780,6917.884,95.438,540.856,538.642,0.0
49431.0,STARLINK-3153,PAYLOAD,2023-09-01 17:03:47,15.08822759,0.0001301,53.2165,39.3231,93.9158,266.1983,0.00028825,4.3e-05,0.0,0 STARLINK-3153,1 49431U 21104Z   23244.71096574  .00004300  00000-0  28825-3 0  9998,2 49431  53.2165  39.3231 0001301  93.9158 266.1983 15.08822759100829,6917.933,95.439,540.698,538.898,0.0
49431.0,STARLINK-3153,PAYLOAD,2023-09-02 10:33:01,15.08843416,0.000143,53.214,36.0514,90.8133,269.3023,-0.00011271,-2.081e-05,0.0,0 STARLINK-3153,1 49431U 21104Z   23245.43960367 -.00002081  00000-0 -11271-3 0  9991,2 49431  53.2140  36.0514 0001430  90.8133 269.3023 15.08843416100937,6917.87,95.437,540.724,538.746,0.0
49431.0,STARLINK-3153,PAYLOAD,2023-09-02 20:05:20,15.08841796,0.0001216,53.2181,34.2679,94.076,266.0371,6.2001e-05,6.99e-06,0.0,0 STARLINK-3153,1 49431U 21104Z   23245.83704030  .00000699  00000-0  62001-4 0  9997,2 49431  53.2181  34.2679 0001216  94.0760 266.0371 15.08841796 99912,6917.875,95.437,540.581,538.899,0.0
49431.0,STARLINK-3153,PAYLOAD,2023-09-03 10:23:48,15.08837878,0.0001213,53.2184,31.591,93.9439,266.1692,8.1696e-05,1.013e-05,0.0,0 STARLINK-3153,1 49431U 21104Z   23246.43320269  .00001013  00000-0  81696-4 0  9994,2 49431  53.2184  31.5910 0001213  93.9439 266.1692 15.08837878100007,6917.887,95.438,540.591,538.913,0.0
49431.0,STARLINK-3153,PAYLOAD,2023-09-03 16:45:21,15.08835796,0.0001208,53.2189,30.4027,92.1021,268.011,7.1303e-05,8.47e-06,0.0,0 STARLINK-3153,1 49431U 21104Z   23246.69816517  .00000847  00000-0  71303-4 0  9996,2 49431  53.2189  30.4027 0001208  92.1021 268.0110 15.08835796101128,6917.893,95.438,540.594,538.923,0.0
49431.0,STARLINK-3153,PAYLOAD,2023-09-04 08:39:12,15.08838623,0.0001227,53.2193,27.4297,88.6709,271.4423,2.0356e-05,3.6e-07,0.0,0 STARLINK-3153,1 49431U 21104Z   23247.36056687  .00000036  00000-0  20356-4 0  9997,2 49431  53.2193  27.4297 0001227  88.6709 271.4423 15.08838623100140,6917.885,95.438,540.598,538.901,0.0
49431.0,STARLINK-3153,PAYLOAD,2023-09-05 10:05:24,15.08826144,0.0001586,53.2195,22.6725,87.4879,272.6295,-2.4342e-05,-6.75e-06,0.0,0 STARLINK-3153,1 49431U 21104Z   23248.42042148 -.00000675  00000-0 -24342-4 0  9992,2 49431  53.2195  22.6725 0001586  87.4879 272.6295 15.08826144101380,6917.923,95.438,540.885,538.691,0.0
